OBJECT_NAME,OBJECT_ID,EPOCH,MEAN_MOTION,ECCENTRICITY,INCLINATION,RA_OF_ASC_NODE,ARG_OF_PERICENTER,MEAN_ANOMALY,EPHEMERIS_TYPE,CLASSIFICATION_TYPE,NORAD_CAT_ID,ELEMENT_SET_NO,REV_AT_EPOCH,BSTAR,MEAN_MOTION_DOT,MEAN_MOTION_DDOT
NUSAT-49 (KLARA DAN VON NEUMANN),2024-149AJ,2026-05-12T19:40:05.899872,15.30242232,.00039574,97.3780,214.3471,73.2586,286.9089,0,U,60500,999,9672,.20315061E-3,.5868E-4,0
FLOCK 4BE-11,2024-149AK,2026-05-12T22:53:21.361344,15.41786432,.00043791,97.3701,216.7303,62.5811,297.5881,0,U,60501,999,9692,.27339624E-3,.11491E-3,0
YAM-7,2024-149AN,2026-05-12T18:37:41.514816,15.31315808,.00048083,97.3787,213.1835,72.8403,287.3365,0,U,60504,999,9663,.16205072E-3,.4825E-4,0
FLOCK 4BE-24,2024-149AP,2026-05-12T16:20:29.721984,15.41729198,.00045599,97.3717,216.7021,71.1936,288.9805,0,U,60505,999,9689,.27772599E-3,.11653E-3,0
LUR-1,2024-149AQ,2026-05-12T19:01:21.943776,15.29629060,.00055952,97.3742,211.8900,78.9787,281.2083,0,U,60506,999,9656,.16091536E-3,.4545E-4,0
TANAGER-1,2024-149AR,2026-05-12T20:32:45.657600,15.44565742,.0006105,97.3206,226.9871,73.8372,286.3549,0,U,60507,999,9758,.21303856E-3,.9815E-4,0
EAGLEEYE,2024-149AS,2026-05-12T19:26:09.083904,15.65152267,.00019006,97.3724,224.3652,52.4399,307.7033,0,U,60508,999,9739,.49425011E-3,.4884E-3,0
FLOCK 4BE-29,2024-149AT,2026-05-12T18:47:46.395168,15.42964850,.00038446,97.3807,218.1572,82.2143,277.9541,0,U,60509,999,9695,.25192852E-3,.11007E-3,0
TRANSPORTER-11 OBJECT AU,2024-149AU,2026-05-12T18:26:06.204768,15.39215708,.00047437,97.3729,216.2348,70.7768,289.3990,0,U,60510,999,9686,.24491258E-3,.9444E-4,0
FLOCK 4BE-2,2024-149AV,2026-05-12T22:57:20.680704,15.49069149,.00036037,97.3823,219.3551,80.6218,279.5440,0,U,60511,999,9704,.61097059E-3,.33145E-3,0
FLOCK 4BE-13,2024-149AW,2026-05-12T20:09:18.524736,15.40921015,.00047273,97.3721,216.9118,54.1018,306.0666,0,U,60512,999,9692,.23231743E-3,.9473E-4,0
FLOCK 4BE-27,2024-149AX,2026-05-12T18:38:11.046336,15.33818390,.00053237,97.3827,214.6285,79.4743,280.7099,0,U,60513,999,9671,.17814531E-3,.5749E-4,0
FLOCK 4BE-9,2024-149AY,2026-05-12T19:30:09.707904,15.39718262,.00039947,97.3790,216.7722,83.5061,276.6639,0,U,60514,999,9687,.26104197E-3,.10239E-3,0
FLOCK 4BE-6,2024-149BA,2026-05-12T19:32:59.109792,15.38593340,.00047376,97.3790,216.1967,79.3165,280.8613,0,U,60516,999,9683,.24480273E-3,.9249E-4,0
FLOCK 4BE-14,2024-149BB,2026-05-12T23:01:07.197312,15.39888626,.00055543,97.3697,216.4506,75.7440,284.4423,0,U,60517,999,9690,.28170195E-3,.11123E-3,0
FLOCK 4BE-1,2024-149BC,2026-05-12T19:34:58.274400,15.41398433,.00050706,97.3781,217.4597,76.2843,283.8968,0,U,60518,999,9692,.2511389E-3,.10413E-3,0
FLOCK 4BE-28,2024-149BD,2026-05-12T16:30:36.586944,15.43651765,.0005147,97.3746,217.9467,71.2028,288.9778,0,U,60519,999,9696,.27157395E-3,.12154E-3,0
IPERDRONE.0,2024-149BE,2026-05-12T19:10:59.432736,15.61925158,.00015863,97.3774,224.4051,42.2107,317.9273,0,U,60520,999,9738,.48515015E-3,.42218E-3,0
TRANSPORTER-11 OBJECT BF,2024-149BF,2026-05-12T19:14:54.576384,15.72534341,.00006436,97.3780,226.3819,327.6294,32.4930,0,U,60521,999,9750,.71307471E-3,.95901E-3,0
CONNECTA IOT-2,2024-149BG,2026-05-12T15:42:02.092896,15.23662682,.00081682,97.3843,211.3465,91.5878,268.6295,0,U,60522,999,9648,.12372086E-3,.2898E-4,0
PTD-R (TYVAK-0127),2024-149BH,2026-05-12T19:49:56.818848,15.87865500,.0001314,97.3772,230.4363,221.7677,138.3495,0,U,60523,999,9779,.49607326E-3,.134543E-2,0
CONNECTA IOT-4,2024-149BJ,2026-05-12T22:59:11.961312,15.40824290,.00062033,97.3800,216.9489,67.8575,292.3330,0,U,60524,999,9690,.27997331E-3,.11403E-3,0
ORESAT0.5,2024-149BK,2026-05-12T16:13:30.605952,15.43738333,.00061803,97.3718,218.1721,58.9810,301.2044,0,U,60525,999,9699,.27296413E-3,.12255E-3,0
DEIMOS,2024-149BL,2026-05-12T19:39:31.193856,15.42949061,.00063165,97.3779,218.4735,64.1888,296.0011,0,U,60526,999,9699,.26301111E-3,.11494E-3,0
CUAVA-2,2024-149BM,2026-05-12T18:23:36.898656,15.35286702,.00078566,97.3726,214.2492,67.6328,292.5747,0,U,60527,999,9673,.23342547E-3,.7925E-4,0
ERNST,2024-149BN,2026-05-12T19:01:08.982048,15.38257170,.00072328,97.3808,216.2742,71.2802,288.9228,0,U,60528,999,9683,.24061687E-3,.8994E-4,0
TORO,2024-149BQ,2026-05-12T15:56:55.952736,14.96286998,.00015906,97.6789,207.9978,96.1485,263.9918,0,U,60530,999,9464,.84825221E-4,.901E-5,0
HYPSO-2,2024-149BR,2026-05-12T22:45:30.388032,14.98608953,.00022757,97.6817,209.7245,111.0615,249.0851,0,U,60531,999,9477,.14129322E-3,.1636E-4,0
LEMU NGE,2024-149BS,2026-05-12T15:24:02.238048,14.94802808,.00025407,97.6847,208.3221,112.8262,247.3227,0,U,60532,999,9464,.11355025E-3,.1179E-4,0
LEMUR-2-STELLA,2024-149BT,2026-05-12T22:13:55.875360,15.11014608,.00019177,97.6734,215.2512,123.6482,236.4930,0,U,60533,999,9517,.42171246E-3,.6982E-4,0
